{
  "type": "FeatureCollection",
  "features": [
    {
      "type": "Feature",
      "properties": {
        "norad_id": 67119,
        "name": "STARLINK-36179",
        "group": "last-30-days",
        "lat": -32.636542553343865,
        "lon": -177.0750291182137,
        "alt_km": 345.65956523735804,
        "timestamp": "2025-12-27T11:23:18.582755+00:00",
        "meta_object_name": "STARLINK-36179",
        "meta_object_id": "2025-299T",
        "meta_epoch": "2025-12-27T04:00:01.998720",
        "meta_mean_motion": 15.76477036,
        "meta_eccentricity": 0.000174,
        "meta_inclination": 42.9985,
        "meta_ra_of_asc_node": 228.2129,
        "meta_arg_of_pericenter": 274.6526,
        "meta_mean_anomaly": 84.6017,
        "meta_ephemeris_type": 0,
        "meta_classification_type": "U",
        "meta_norad_cat_id": 67119,
        "meta_element_set_no": 999,
        "meta_rev_at_epoch": 312,
        "meta_bstar": -0.012336,
        "meta_mean_motion_dot": -0.01775038,
        "meta_mean_motion_ddot": 0,
        "tle_line1": "1 67119U 25299T   25361.16668980 -.01775038  00000+0 -12336-1 0  9990",
        "tle_line2": "2 67119  42.9985 228.2129 0001740 274.6526  84.6017 15.76477036  3121"
      },
      "geometry": {
        "type": "Point",
        "coordinates": [
          -177.0750291182137,
          -32.636542553343865
        ]
      }
    },
    {
      "type": "Feature",
      "properties": {
        "norad_id": 67120,
        "name": "STARLINK-36217",
        "group": "last-30-days",
        "lat": -33.354260835311145,
        "lon": -178.59703587313163,
        "alt_km": 345.62998625926684,
        "timestamp": "2025-12-27T11:23:18.582769+00:00",
        "meta_object_name": "STARLINK-36217",
        "meta_object_id": "2025-299U",
        "meta_epoch": "2025-12-27T04:00:01.998720",
        "meta_mean_motion": 15.76453621,
        "meta_eccentricity": 0.0001951,
        "meta_inclination": 42.9987,
        "meta_ra_of_asc_node": 228.2174,
        "meta_arg_of_pericenter": 273.4131,
        "meta_mean_anomaly": 84.3942,
        "meta_ephemeris_type": 0,
        "meta_classification_type": "U",
        "meta_norad_cat_id": 67120,
        "meta_element_set_no": 999,
        "meta_rev_at_epoch": 312,
        "meta_bstar": -0.012307,
        "meta_mean_motion_dot": -0.01769884,
        "meta_mean_motion_ddot": 0,
        "tle_line1": "1 67120U 25299U   25361.16668980 -.01769884  00000+0 -12307-1 0  9992",
        "tle_line2": "2 67120  42.9987 228.2174 0001951 273.4131  84.3942 15.76453621  3126"
      },
      "geometry": {
        "type": "Point",
        "coordinates": [
          -178.59703587313163,
          -33.354260835311145
        ]
      }
    },
    {
      "type": "Feature",
      "properties": {
        "norad_id": 67121,
        "name": "STARLINK-36124",
        "group": "last-30-days",
        "lat": -30.8233080244246,
        "lon": -173.48375690582313,
        "alt_km": 345.4068072794953,
        "timestamp": "2025-12-27T11:23:18.582779+00:00",
        "meta_object_name": "STARLINK-36124",
        "meta_object_id": "2025-299V",
        "meta_epoch": "2025-12-27T04:00:01.998720",
        "meta_mean_motion": 15.764823,
        "meta_eccentricity": 0.0001884,
        "meta_inclination": 42.9987,
        "meta_ra_of_asc_node": 228.2044,
        "meta_arg_of_pericenter": 279.3627,
        "meta_mean_anomaly": 83.443,
        "meta_ephemeris_type": 0,
        "meta_classification_type": "U",
        "meta_norad_cat_id": 67121,
        "meta_element_set_no": 999,
        "meta_rev_at_epoch": 312,
        "meta_bstar": -0.012244,
        "meta_mean_motion_dot": -0.01763866,
        "meta_mean_motion_ddot": 0,
        "tle_line1": "1 67121U 25299V   25361.16668980 -.01763866  00000+0 -12244-1 0  9997",
        "tle_line2": "2 67121  42.9987 228.2044 0001884 279.3627  83.4430 15.76482300  3121"
      },
      "geometry": {
        "type": "Point",
        "coordinates": [
          -173.48375690582313,
          -30.8233080244246
        ]
      }
    },
    {
      "type": "Feature",
      "properties": {
        "norad_id": 67122,
        "name": "STARLINK-36188",
        "group": "last-30-days",
        "lat": -29.969532358464818,
        "lon": -171.90203962272895,
        "alt_km": 345.4125696219389,
        "timestamp": "2025-12-27T11:23:18.582789+00:00",
        "meta_object_name": "STARLINK-36188",
        "meta_object_id": "2025-299W",
        "meta_epoch": "2025-12-27T04:00:01.998720",
        "meta_mean_motion": 15.76494527,
        "meta_eccentricity": 0.0001962,
        "meta_inclination": 42.9986,
        "meta_ra_of_asc_node": 228.2009,
        "meta_arg_of_pericenter": 271.9373,
        "meta_mean_anomaly": 92.464,
        "meta_ephemeris_type": 0,
        "meta_classification_type": "U",
        "meta_norad_cat_id": 67122,
        "meta_element_set_no": 999,
        "meta_rev_at_epoch": 312,
        "meta_bstar": -0.012227,
        "meta_mean_motion_dot": -0.01762636,
        "meta_mean_motion_ddot": 0,
        "tle_line1": "1 67122U 25299W   25361.16668980 -.01762636  00000+0 -12227-1 0  9993",
        "tle_line2": "2 67122  42.9986 228.2009 0001962 271.9373  92.4640 15.76494527  3122"
      },
      "geometry": {
        "type": "Point",
        "coordinates": [
          -171.90203962272895,
          -29.969532358464818
        ]
      }
    },
    {
      "type": "Feature",
      "properties": {
        "norad_id": 67123,
        "name": "STARLINK-36151",
        "group": "last-30-days",
        "lat": -31.752199190228247,
        "lon": -175.2799794491784,
        "alt_km": 345.7176662357342,
        "timestamp": "2025-12-27T11:23:18.582802+00:00",
        "meta_object_name": "STARLINK-36151",
        "meta_object_id": "2025-299X",
        "meta_epoch": "2025-12-27T04:00:01.998720",
        "meta_mean_motion": 15.7648807,
        "meta_eccentricity": 0.0001683,
        "meta_inclination": 42.9988,
        "meta_ra_of_asc_node": 228.2092,
        "meta_arg_of_pericenter": 269.1293,
        "meta_mean_anomaly": 91.8739,
        "meta_ephemeris_type": 0,
        "meta_classification_type": "U",
        "meta_norad_cat_id": 67123,
        "meta_element_set_no": 999,
        "meta_rev_at_epoch": 312,
        "meta_bstar": -0.012345,
        "meta_mean_motion_dot": -0.01776908,
        "meta_mean_motion_ddot": 0,
        "tle_line1": "1 67123U 25299X   25361.16668980 -.01776908  00000+0 -12345-1 0  9992",
        "tle_line2": "2 67123  42.9988 228.2092 0001683 269.1293  91.8739 15.76488070  3125"
      },
      "geometry": {
        "type": "Point",
        "coordinates": [
          -175.2799794491784,
          -31.752199190228247
        ]
      }
    },
    {
      "type": "Feature",
      "properties": {
        "norad_id": 67124,
        "name": "STARLINK-36195",
        "group": "last-30-days",
        "lat": -29.033274354147075,
        "lon": -170.2368049019685,
        "alt_km": 345.4511745515347,
        "timestamp": "2025-12-27T11:23:18.582812+00:00",
        "meta_object_name": "STARLINK-36195",
        "meta_object_id": "2025-299Y",
        "meta_epoch": "2025-12-27T04:00:01.998720",
        "meta_mean_motion": 15.76513128,
        "meta_eccentricity": 0.0001865,
        "meta_inclination": 42.9987,
        "meta_ra_of_asc_node": 228.1962,
        "meta_arg_of_pericenter": 269.4835,
        "meta_mean_anomaly": 96.6324,
        "meta_ephemeris_type": 0,
        "meta_classification_type": "U",
        "meta_norad_cat_id": 67124,
        "meta_element_set_no": 999,
        "meta_rev_at_epoch": 312,
        "meta_bstar": -0.012314,
        "meta_mean_motion_dot": -0.0177489,
        "meta_mean_motion_ddot": 0,
        "tle_line1": "1 67124U 25299Y   25361.16668980 -.01774890  00000+0 -12314-1 0  9997",
        "tle_line2": "2 67124  42.9987 228.1962 0001865 269.4835  96.6324 15.76513128  3123"
      },
      "geometry": {
        "type": "Point",
        "coordinates": [
          -170.2368049019685,
          -29.033274354147075
        ]
      }
    },
    {
      "type": "Feature",
      "properties": {
        "norad_id": 67125,
        "name": "STARLINK-36219",
        "group": "last-30-days",
        "lat": -28.11650617378449,
        "lon": -168.66875730588671,
        "alt_km": 345.322081681682,
        "timestamp": "2025-12-27T11:23:18.582822+00:00",
        "meta_object_name": "STARLINK-36219",
        "meta_object_id": "2025-299Z",
        "meta_epoch": "2025-12-27T04:00:01.998720",
        "meta_mean_motion": 15.76518824,
        "meta_eccentricity": 0.0001807,
        "meta_inclination": 42.9985,
        "meta_ra_of_asc_node": 228.192,
        "meta_arg_of_pericenter": 274.361,
        "meta_mean_anomaly": 93.4052,
        "meta_ephemeris_type": 0,
        "meta_classification_type": "U",
        "meta_norad_cat_id": 67125,
        "meta_element_set_no": 999,
        "meta_rev_at_epoch": 312,
        "meta_bstar": -0.012235,
        "meta_mean_motion_dot": -0.01765145,
        "meta_mean_motion_ddot": 0,
        "tle_line1": "1 67125U 25299Z   25361.16668980 -.01765145  00000+0 -12235-1 0  9993",
        "tle_line2": "2 67125  42.9985 228.1920 0001807 274.3610  93.4052 15.76518824  3129"
      },
      "geometry": {
        "type": "Point",
        "coordinates": [
          -168.66875730588671,
          -28.11650617378449
        ]
      }
    }
  ]
}